{
  "type": "FeatureCollection",
  "features": [
    {
      "type": "Feature",
      "properties": {
        "norad_id": 31744,
        "name": "FENGYUN 1C DEB",
        "group": "fengyun-1c-debris",
        "lat": 0.41771400033207595,
        "lon": 112.24872096462853,
        "alt_km": 612.8888834171094,
        "timestamp": "2025-12-26T16:33:55.854593+00:00",
        "meta_object_name": "FENGYUN 1C DEB",
        "meta_object_id": "1999-025CET",
        "meta_epoch": "2025-12-17T13:54:12.794400",
        "meta_mean_motion": 14.16604274,
        "meta_eccentricity": 0.03151073,
        "meta_inclination": 99.3037,
        "meta_ra_of_asc_node": 102.7793,
        "meta_arg_of_pericenter": 30.7507,
        "meta_mean_anomaly": 331.1716,
        "meta_ephemeris_type": 0,
        "meta_classification_type": "U",
        "meta_norad_cat_id": 31744,
        "meta_element_set_no": 999,
        "meta_rev_at_epoch": 94683,
        "meta_bstar": 0.00098574439,
        "meta_mean_motion_dot": 3.146e-05,
        "meta_mean_motion_ddot": 0,
        "tle_line1": "1 31744U 99025CET 25351.57931475  .00003146  00000+0  98574-3 0  9990",
        "tle_line2": "2 31744  99.3037 102.7793 0315107  30.7507 331.1716 14.16604274946837"
      },
      "geometry": {
        "type": "Point",
        "coordinates": [
          112.24872096462853,
          0.41771400033207595
        ]
      }
    },
    {
      "type": "Feature",
      "properties": {
        "norad_id": 31746,
        "name": "FENGYUN 1C DEB",
        "group": "fengyun-1c-debris",
        "lat": -44.49837618126027,
        "lon": -64.37802222078078,
        "alt_km": 635.9960766299046,
        "timestamp": "2025-12-26T16:33:55.854604+00:00",
        "meta_object_name": "FENGYUN 1C DEB",
        "meta_object_id": "1999-025CEV",
        "meta_epoch": "2025-12-22T07:30:54.832032",
        "meta_mean_motion": 14.77180298,
        "meta_eccentricity": 0.00226914,
        "meta_inclination": 98.5896,
        "meta_ra_of_asc_node": 119.5049,
        "meta_arg_of_pericenter": 179.7871,
        "meta_mean_anomaly": 180.3351,
        "meta_ephemeris_type": 0,
        "meta_classification_type": "U",
        "meta_norad_cat_id": 31746,
        "meta_element_set_no": 999,
        "meta_rev_at_epoch": 97169,
        "meta_bstar": 0.0037623733,
        "meta_mean_motion_dot": 0.00026782,
        "meta_mean_motion_ddot": 0,
        "tle_line1": "1 31746U 99025CEV 25356.31313463  .00026782  00000+0  37624-2 0  9999",
        "tle_line2": "2 31746  98.5896 119.5049 0022691 179.7871 180.3351 14.77180298971697"
      },
      "geometry": {
        "type": "Point",
        "coordinates": [
          -64.37802222078078,
          -44.49837618126027
        ]
      }
    },
    {
      "type": "Feature",
      "properties": {
        "norad_id": 31752,
        "name": "FENGYUN 1C DEB",
        "group": "fengyun-1c-debris",
        "lat": -50.89043318586233,
        "lon": -118.12420341793711,
        "alt_km": 802.4652747810496,
        "timestamp": "2025-12-26T16:33:55.854613+00:00",
        "meta_object_name": "FENGYUN 1C DEB",
        "meta_object_id": "1999-025CFB",
        "meta_epoch": "2025-12-18T10:55:16.632768",
        "meta_mean_motion": 13.93070684,
        "meta_eccentricity": 0.03557691,
        "meta_inclination": 98.9786,
        "meta_ra_of_asc_node": 65.0821,
        "meta_arg_of_pericenter": 317.9795,
        "meta_mean_anomaly": 39.4568,
        "meta_ephemeris_type": 0,
        "meta_classification_type": "U",
        "meta_norad_cat_id": 31752,
        "meta_element_set_no": 999,
        "meta_rev_at_epoch": 93670,
        "meta_bstar": 0.0010716417,
        "meta_mean_motion_dot": 2.302e-05,
        "meta_mean_motion_ddot": 0,
        "tle_line1": "1 31752U 99025CFB 25352.45505362  .00002302  00000+0  10716-2 0  9993",
        "tle_line2": "2 31752  98.9786  65.0821 0355769 317.9795  39.4568 13.93070684936706"
      },
      "geometry": {
        "type": "Point",
        "coordinates": [
          -118.12420341793711,
          -50.89043318586233
        ]
      }
    },
    {
      "type": "Feature",
      "properties": {
        "norad_id": 31753,
        "name": "FENGYUN 1C DEB",
        "group": "fengyun-1c-debris",
        "lat": -17.80138370774576,
        "lon": 36.23557144600317,
        "alt_km": 935.6639859142088,
        "timestamp": "2025-12-26T16:33:55.854622+00:00",
        "meta_object_name": "FENGYUN 1C DEB",
        "meta_object_id": "1999-025CFC",
        "meta_epoch": "2025-12-26T01:33:34.545024",
        "meta_mean_motion": 14.18655047,
        "meta_eccentricity": 0.01597099,
        "meta_inclination": 98.6307,
        "meta_ra_of_asc_node": 32.8316,
        "meta_arg_of_pericenter": 135.483,
        "meta_mean_anomaly": 256.067,
        "meta_ephemeris_type": 0,
        "meta_classification_type": "U",
        "meta_norad_cat_id": 31753,
        "meta_element_set_no": 999,
        "meta_rev_at_epoch": 96208,
        "meta_bstar": 0.00026551215,
        "meta_mean_motion_dot": 5.83e-06,
        "meta_mean_motion_ddot": 0,
        "tle_line1": "1 31753U 99025CFC 25360.06498316  .00000583  00000+0  26551-3 0  9994",
        "tle_line2": "2 31753  98.6307  32.8316 0159709 135.4830 256.0670 14.18655047962084"
      },
      "geometry": {
        "type": "Point",
        "coordinates": [
          36.23557144600317,
          -17.80138370774576
        ]
      }
    },
    {
      "type": "Feature",
      "properties": {
        "norad_id": 31754,
        "name": "FENGYUN 1C DEB",
        "group": "fengyun-1c-debris",
        "lat": -2.852773774741564,
        "lon": 146.35184502102675,
        "alt_km": 719.0094614774871,
        "timestamp": "2025-12-26T16:33:55.854631+00:00",
        "meta_object_name": "FENGYUN 1C DEB",
        "meta_object_id": "1999-025CFD",
        "meta_epoch": "2025-12-24T15:26:18.407904",
        "meta_mean_motion": 14.42328949,
        "meta_eccentricity": 0.00495293,
        "meta_inclination": 99.041,
        "meta_ra_of_asc_node": 324.6386,
        "meta_arg_of_pericenter": 181.9518,
        "meta_mean_anomaly": 178.1484,
        "meta_ephemeris_type": 0,
        "meta_classification_type": "U",
        "meta_norad_cat_id": 31754,
        "meta_element_set_no": 999,
        "meta_rev_at_epoch": 97161,
        "meta_bstar": 0.00092498004,
        "meta_mean_motion_dot": 3.052e-05,
        "meta_mean_motion_ddot": 0,
        "tle_line1": "1 31754U 99025CFD 25358.64326861  .00003052  00000+0  92498-3 0  9998",
        "tle_line2": "2 31754  99.0410 324.6386 0049529 181.9518 178.1484 14.42328949971612"
      },
      "geometry": {
        "type": "Point",
        "coordinates": [
          146.35184502102675,
          -2.852773774741564
        ]
      }
    },
    {
      "type": "Feature",
      "properties": {
        "norad_id": 31757,
        "name": "FENGYUN 1C DEB",
        "group": "fengyun-1c-debris",
        "lat": -79.67169928934112,
        "lon": 144.5051299350298,
        "alt_km": 993.7429822789272,
        "timestamp": "2025-12-26T16:33:55.854640+00:00",
        "meta_object_name": "FENGYUN 1C DEB",
        "meta_object_id": "1999-025CFG",
        "meta_epoch": "2025-12-19T19:34:47.252352",
        "meta_mean_motion": 14.07925739,
        "meta_eccentricity": 0.02177667,
        "meta_inclination": 98.7671,
        "meta_ra_of_asc_node": 15.6869,
        "meta_arg_of_pericenter": 64.1846,
        "meta_mean_anomaly": 298.1612,
        "meta_ephemeris_type": 0,
        "meta_classification_type": "U",
        "meta_norad_cat_id": 31757,
        "meta_element_set_no": 999,
        "meta_rev_at_epoch": 63981,
        "meta_bstar": 9.3425243e-05,
        "meta_mean_motion_dot": 1.55e-06,
        "meta_mean_motion_ddot": 0,
        "tle_line1": "1 31757U 99025CFG 25353.81582468  .00000155  00000+0  93425-4 0  9995",
        "tle_line2": "2 31757  98.7671  15.6869 0217766  64.1846 298.1612 14.07925739639819"
      },
      "geometry": {
        "type": "Point",
        "coordinates": [
          144.5051299350298,
          -79.67169928934112
        ]
      }
    },
    {
      "type": "Feature",
      "properties": {
        "norad_id": 31758,
        "name": "FENGYUN 1C DEB",
        "group": "fengyun-1c-debris",
        "lat": 62.93015989574913,
        "lon": -7.080024407029929,
        "alt_km": 527.2934309937764,
        "timestamp": "2025-12-26T16:33:55.854649+00:00",
        "meta_object_name": "FENGYUN 1C DEB",
        "meta_object_id": "1999-025CFH",
        "meta_epoch": "2025-12-25T11:58:59.903616",
        "meta_mean_motion": 14.4233459,
        "meta_eccentricity": 0.031665,
        "meta_inclination": 98.0606,
        "meta_ra_of_asc_node": 7.8908,
        "meta_arg_of_pericenter": 51.4999,
        "meta_mean_anomaly": 311.414,
        "meta_ephemeris_type": 0,
        "meta_classification_type": "U",
        "meta_norad_cat_id": 31758,
        "meta_element_set_no": 999,
        "meta_rev_at_epoch": 94384,
        "meta_bstar": 0.0025434,
        "meta_mean_motion_dot": 0.00015408,
        "meta_mean_motion_ddot": 0,
        "tle_line1": "1 31758U 99025CFH 25359.49930444  .00015408  00000+0  25434-2 0  9997",
        "tle_line2": "2 31758  98.0606   7.8908 0316650  51.4999 311.4140 14.42334590943842"
      },
      "geometry": {
        "type": "Point",
        "coordinates": [
          -7.080024407029929,
          62.93015989574913
        ]
      }
    }
  ]
}